NORAD_CAT_ID,OBJECT_NAME,OBJECT_TYPE,EPOCH,MEAN_MOTION,ECCENTRICITY,INCLINATION,RA_OF_ASC_NODE,ARG_OF_PERICENTER,MEAN_ANOMALY,BSTAR,MEAN_MOTION_DOT,MEAN_MOTION_DDOT,TLE_LINE0,TLE_LINE1,TLE_LINE2,SEMIMAJOR_AXIS,PERIOD,APOGEE,PERIGEE,DECAYED
55286.0,STARLINK-5338,PAYLOAD,2023-11-26 02:18:55,14.98321708,0.0002364,69.9995,328.8238,270.506,89.5828,-0.00016685,-2.083e-05,0.0,0 STARLINK-5338,1 55286U 23010T   23330.09647932 -.00002083  00000-0 -16685-3 0  9997,2 55286  69.9995 328.8238 0002364 270.5060  89.5828 14.98321708 47941,6950.219,96.108,573.727,570.441,0.0
55286.0,STARLINK-5338,PAYLOAD,2023-11-26 10:19:35,14.98325101,0.0002526,70.0001,327.9835,272.9097,87.1773,-0.00012701,-1.608e-05,0.0,0 STARLINK-5338,1 55286U 23010T   23330.43027743 -.00001608  00000-0 -12701-3 0  9994,2 55286  70.0001 327.9835 0002526 272.9097  87.1773 14.98325101 48306,6950.208,96.107,573.829,570.317,0.0
55286.0,STARLINK-5338,PAYLOAD,2023-11-27 03:57:04,14.9832452,0.0002369,69.9997,326.133,266.9564,93.1324,7.034e-05,7.46e-06,0.0,0 STARLINK-5338,1 55286U 23010T   23331.16463259  .00000746  00000-0  70340-4 0  9995,2 55286  69.9997 326.1330 0002369 266.9564  93.1324 14.98324520 48106,6950.21,96.107,573.721,570.428,0.0
55286.0,STARLINK-5338,PAYLOAD,2023-11-27 08:45:28,14.98322043,0.0002028,70.0008,325.6293,251.3864,108.7075,4.6432e-05,4.61e-06,0.0,0 STARLINK-5338,1 55286U 23010T   23331.36491552  .00000461  00000-0  46432-4 0  9993,2 55286  70.0008 325.6293 0002028 251.3864 108.7075 14.98322043 48448,6950.217,96.108,573.492,570.673,0.0
55286.0,STARLINK-5338,PAYLOAD,2023-11-28 02:22:56,14.98332703,0.0002421,70.0019,323.7799,216.0493,144.0503,0.00023864,2.756e-05,0.0,0 STARLINK-5338,1 55286U 23010T   23332.09926271  .00002756  00000-0  23864-3 0  9997,2 55286  70.0019 323.7799 0002421 216.0493 144.0503 14.98332703 48244,6950.185,96.107,573.732,570.367,0.0
55286.0,STARLINK-5338,PAYLOAD,2023-11-28 07:11:20,14.98340096,0.0002221,70.0022,323.2756,210.9173,149.1855,1.658e-05,1.05e-06,0.0,0 STARLINK-5338,1 55286U 23010T   23332.29954408  .00000105  00000-0  16580-4 0  9996,2 55286  70.0022 323.2756 0002221 210.9173 149.1855 14.98340096 48589,6950.162,96.106,573.57,570.483,0.0
55286.0,STARLINK-5338,PAYLOAD,2023-11-28 23:12:40,14.98336819,0.000232,70.002,321.5918,215.1139,144.9868,7.4502e-05,7.96e-06,0.0,0 STARLINK-5338,1 55286U 23010T   23332.96713952  .00000796  00000-0  74502-4 0  9991,2 55286  70.0020 321.5918 0002320 215.1139 144.9868 14.98336819 48683,6950.172,96.107,573.649,570.424,0.0
55286.0,STARLINK-5338,PAYLOAD,2023-11-29 04:01:05,14.98333739,0.0002758,69.9989,321.0837,261.0899,98.9948,-3.9654e-05,-5.66e-06,0.0,0 STARLINK-5338,1 55286U 23010T   23333.16742501 -.00000566  00000-0 -39654-4 0  9992,2 55286  69.9989 321.0837 0002758 261.0899  98.9948 14.98333739 48402,6950.181,96.107,573.963,570.129,0.0
55286.0,STARLINK-5338,PAYLOAD,2023-11-29 08:49:30,14.98326899,0.0001464,70.0016,320.5808,285.483,74.6167,-6.1026e-06,-1.66e-06,0.0,0 STARLINK-5338,1 55286U 23010T   23333.36771231 -.00000166  00000-0 -61026-5 0  9991,2 55286  70.0016 320.5808 0001464 285.4830  74.6167 14.98326899 48746,6950.202,96.107,573.085,571.05,0.0
55286.0,STARLINK-5338,PAYLOAD,2023-11-30 04:03:06,14.98333106,0.0002642,69.9996,318.5583,249.2221,110.8655,-9.1987e-05,-1.19e-05,0.0,0 STARLINK-5338,1 55286U 23010T   23334.16882435 -.00001190  00000-0 -91987-4 0  9995,2 55286  69.9996 318.5583 0002642 249.2221 110.8655 14.98333106 48551,6950.183,96.107,573.885,570.212,0.0
55286.0,STARLINK-5338,PAYLOAD,2023-12-01 05:41:15,14.9832549,0.0002667,69.9997,315.8653,265.8807,94.2047,9.8087e-06,2.4e-07,0.0,0 STARLINK-5338,1 55286U 23010T   23335.23698555  .00000024  00000-0  98087-5 0  9994,2 55286  69.9997 315.8653 0002667 265.8807  94.2047 14.98325490 48716,6950.207,96.107,573.925,570.218,0.0
55286.0,STARLINK-5338,PAYLOAD,2023-12-01 08:53:31,14.98326351,0.0002624,69.9998,315.5288,265.2475,94.8385,2.2497e-05,1.75e-06,0.0,0 STARLINK-5338,1 55286U 23010T   23335.37050500  .00000175  00000-0  22497-4 0  9999,2 55286  69.9998 315.5288 0002624 265.2475  94.8385 14.98326351 49041,6950.204,96.107,573.893,570.245,0.0
55286.0,STARLINK-5338,PAYLOAD,2023-12-02 00:54:51,14.98334486,0.0002826,69.9993,313.845,263.063,97.0208,0.00011388,1.266e-05,0.0,0 STARLINK-5338,1 55286U 23010T   23336.03809600  .00001266  00000-0  11388-3 0  9994,2 55286  69.9993 313.8450 0002826 263.0630  97.0208 14.98334486 48834,6950.179,96.107,574.008,570.08,0.0
55286.0,STARLINK-5338,PAYLOAD,2023-12-02 08:55:31,14.98342909,0.0002558,70.0001,313.0051,252.5019,107.5861,0.0001824,2.085e-05,0.0,0 STARLINK-5338,1 55286U 23010T   23336.37188685  .00002085  00000-0  18240-3 0  9998,2 55286  70.0001 313.0051 0002558 252.5019 107.5861 14.98342909 48888,6950.153,96.106,573.796,570.24,0.0
55286.0,STARLINK-5338,PAYLOAD,2023-12-03 04:09:09,14.98330113,0.0002624,70.0005,310.9855,229.9456,130.1473,-1.3763e-05,-2.57e-06,0.0,0 STARLINK-5338,1 55286U 23010T   23337.17302252 -.00000257  00000-0 -13763-4 0  9992,2 55286  70.0005 310.9855 0002624 229.9456 130.1473 14.98330113 49007,6950.193,96.107,573.881,570.234,0.0
55286.0,STARLINK-5338,PAYLOAD,2023-12-03 07:21:26,14.9831175,0.0002589,70.0005,310.6482,237.9114,122.1793,-0.00012709,-1.608e-05,0.0,0 STARLINK-5338,1 55286U 23010T   23337.30655723 -.00001608  00000-0 -12709-3 0  9990,2 55286  70.0005 310.6482 0002589 237.9114 122.1793 14.98311750 49024,6950.249,96.108,573.914,570.315,0.0
55286.0,STARLINK-5338,PAYLOAD,2023-12-04 04:11:11,14.98320985,0.0003005,70.0043,308.4652,202.3553,157.7476,-0.00010804,-1.381e-05,0.0,0 STARLINK-5338,1 55286U 23010T   23338.17443402 -.00001381  00000-0 -10804-3 0  9997,2 55286  70.0043 308.4652 0003005 202.3553 157.7476 14.98320985 49153,6950.221,96.108,574.174,569.997,0.0
55286.0,STARLINK-5338,PAYLOAD,2023-12-04 07:23:30,14.98282078,0.0002147,70.0017,308.1267,233.5685,126.5277,-0.00064647,-7.788e-05,0.0,0 STARLINK-5338,1 55286U 23010T   23338.30799143 -.00007788  00000-0 -64647-3 0  9999,2 55286  70.0017 308.1267 0002147 233.5685 126.5277 14.98282078 49176,6950.341,96.11,573.698,570.714,0.0
55286.0,STARLINK-5338,PAYLOAD,2023-12-04 21:48:38,14.98323235,0.0002329,70.0043,306.6127,212.5051,147.5965,0.00031002,3.607e-05,0.0,0 STARLINK-5338,1 55286U 23010T   23338.90877993  .00003607  00000-0  31002-3 0  9998,2 55286  70.0043 306.6127 0002329 212.5051 147.5965 14.98323235 49571,6950.214,96.107,573.698,570.46,0.0
55286.0,STARLINK-5338,PAYLOAD,2023-12-05 02:37:03,14.9832026,0.0002763,70.0032,306.106,210.7322,149.3675,0.00021974,2.529e-05,0.0,0 STARLINK-5338,1 55286U 23010T   23339.10906525  .00002529  00000-0  21974-3 0  9994,2 55286  70.0032 306.1060 0002763 210.7322 149.3675 14.98320260 49295,6950.223,96.108,574.008,570.168,0.0
55286.0,STARLINK-5338,PAYLOAD,2023-12-05 07:25:27,14.98323556,0.0001466,70.0022,305.5995,234.8189,125.2833,0.00025669,2.971e-05,0.0,0 STARLINK-5338,1 55286U 23010T   23339.30934529  .00002971  00000-0  25669-3 0  9997,2 55286  70.0022 305.5995 0001466 234.8189 125.2833 14.98323556 49639,6950.213,96.107,573.097,571.059,0.0
55286.0,STARLINK-5338,PAYLOAD,2023-12-05 21:50:40,14.98332401,0.000175,70.0031,304.0843,239.8102,120.2883,1.9578e-05,1.41e-06,0.0,0 STARLINK-5338,1 55286U 23010T   23339.91018528  .00000141  00000-0  19578-4 0  9996,2 55286  70.0031 304.0843 0001750 239.8102 120.2883 14.98332401 49720,6950.185,96.107,573.267,570.834,0.0
55286.0,STARLINK-5338,PAYLOAD,2023-12-06 04:15:13,14.98318251,0.0002378,70.0018,303.4115,225.0414,135.0553,-3.767e-05,-5.42e-06,0.0,0 STARLINK-5338,1 55286U 23010T   23340.17723420 -.00000542  00000-0 -37670-4 0  9990,2 55286  70.0018 303.4115 0002378 225.0414 135.0553 14.98318251 49455,6950.229,96.108,573.747,570.441,0.0
55286.0,STARLINK-5338,PAYLOAD,2023-12-06 07:27:27,14.98397883,0.0002654,70.0006,303.0719,246.8386,113.2494,-0.0014085,-0.00016888,0.0,0 STARLINK-5338,1 55286U 23010T   23340.31073608 -.00016888  00000-0 -14085-2 0  9995,2 55286  70.0006 303.0719 0002654 246.8386 113.2494 14.98397883 49476,6949.983,96.103,573.693,570.003,0.0
55286.0,STARLINK-5338,PAYLOAD,2023-12-06 20:16:32,14.98334584,0.0002473,70.001,301.7266,266.7889,93.2987,1.1386e-05,4.3e-07,0.0,0 STARLINK-5338,1 55286U 23010T   23340.84482292  .00000043  00000-0  11386-4 0  9993,2 55286  70.0010 301.7266 0002473 266.7889  93.2987 14.98334584 49553,6950.179,96.107,573.762,570.325,0.0
55286.0,STARLINK-5338,PAYLOAD,2023-12-06 21:52:40,14.98334633,0.0002929,69.9988,301.5554,263.9611,96.1214,-6.6888e-05,-8.91e-06,0.0,0 STARLINK-5338,1 55286U 23010T   23340.91158458 -.00000891  00000-0 -66888-4 0  9995,2 55286  69.9988 301.5554 0002929 263.9611  96.1214 14.98334633 49875,6950.179,96.107,574.079,570.008,0.0
55286.0,STARLINK-5338,PAYLOAD,2023-12-07 07:29:28,14.98338745,0.0002739,69.9993,300.5454,264.5887,95.496,-3.0103e-05,-4.52e-06,0.0,0 STARLINK-5338,1 55286U 23010T   23341.31213962 -.00000452  00000-0 -30103-4 0  9996,2 55286  69.9993 300.5454 0002739 264.5887  95.4960 14.98338745 49935,6950.166,96.106,573.934,570.127,0.0
55286.0,STARLINK-5338,PAYLOAD,2023-12-07 20:18:33,14.98327581,0.0002585,69.9999,299.1986,271.6958,88.3905,0.00015045,1.702e-05,0.0,0 STARLINK-5338,1 55286U 23010T   23341.84621987  .00001702  00000-0  15045-3 0  9998,2 55286  69.9999 299.1986 0002585 271.6958  88.3905 14.98327581 49702,6950.2,96.107,573.862,570.269,0.0
55286.0,STARLINK-5338,PAYLOAD,2023-12-08 07:31:29,14.98346209,0.0002518,69.9994,298.0213,259.8573,100.2302,-0.0002409,-2.967e-05,0.0,0 STARLINK-5338,1 55286U 23010T   23342.31353730 -.00002967  00000-0 -24090-3 0  9995,2 55286  69.9994 298.0213 0002518 259.8573 100.2302 14.98346209 49775,6950.143,96.106,573.758,570.258,0.0
55286.0,STARLINK-5338,PAYLOAD,2023-12-08 20:20:34,14.98335475,0.0002598,69.9998,296.6734,266.8201,93.266,-3.6629e-05,-5.3e-06,0.0,0 STARLINK-5338,1 55286U 23010T   23342.84761964 -.00000530  00000-0 -36629-4 0  9991,2 55286  69.9998 296.6734 0002598 266.8201  93.2660 14.98335475 49855,6950.176,96.107,573.847,570.235,0.0
